NORAD_CAT_ID,OBJECT_NAME,OBJECT_TYPE,EPOCH,MEAN_MOTION,ECCENTRICITY,INCLINATION,RA_OF_ASC_NODE,ARG_OF_PERICENTER,MEAN_ANOMALY,BSTAR,MEAN_MOTION_DOT,MEAN_MOTION_DDOT,TLE_LINE0,TLE_LINE1,TLE_LINE2,SEMIMAJOR_AXIS,PERIOD,APOGEE,PERIGEE,DECAYED
51744.0,STARLINK-3452,PAYLOAD,2023-10-22 05:19:19,15.08863289,0.0001491,53.2177,262.3434,93.2314,266.8848,0.00077951,0.00012148,0.0,0 STARLINK-3452,1 51744U 22016AG  23295.22174921  .00012148  00000-0  77951-3 0  9999,2 51744  53.2177 262.3434 0001491  93.2314 266.8848 15.08863289 92305,6917.809,95.436,540.706,538.643,0.0
51744.0,STARLINK-3452,PAYLOAD,2023-10-22 14:51:37,15.08851282,0.0001382,53.2174,260.5569,101.5954,258.5193,0.00017949,2.571e-05,0.0,0 STARLINK-3452,1 51744U 22016AG  23295.61918791  .00002571  00000-0  17949-3 0  9993,2 51744  53.2174 260.5569 0001382 101.5954 258.5193 15.08851282 93428,6917.846,95.437,540.667,538.755,0.0
51744.0,STARLINK-3452,PAYLOAD,2023-10-23 03:34:43,15.08837141,0.0001671,53.2172,258.1806,100.1448,259.9733,5.1734e-05,5.35e-06,0.0,0 STARLINK-3452,1 51744U 22016AG  23296.14911311  .00000535  00000-0  51734-4 0  9992,2 51744  53.2172 258.1806 0001671 100.1448 259.9733 15.08837141 93509,6917.889,95.438,540.91,538.598,0.0
51744.0,STARLINK-3452,PAYLOAD,2023-10-23 14:42:25,15.08832894,0.0001591,53.2171,256.0976,100.2778,259.8393,0.00047519,7.281e-05,0.0,0 STARLINK-3452,1 51744U 22016AG  23296.61279793  .00007281  00000-0  47519-3 0  9995,2 51744  53.2171 256.0976 0001591 100.2778 259.8393 15.08832894 92512,6917.902,95.438,540.868,538.666,0.0
51744.0,STARLINK-3452,PAYLOAD,2023-10-24 05:00:53,15.08844273,0.0001496,53.2159,253.4214,103.1292,256.9867,0.00066676,0.00010341,0.0,0 STARLINK-3452,1 51744U 22016AG  23297.20895824  .00010341  00000-0  66676-3 0  9996,2 51744  53.2159 253.4214 0001496 103.1292 256.9867 15.08844273 93666,6917.867,95.437,540.767,538.697,0.0
51744.0,STARLINK-3452,PAYLOAD,2023-10-24 14:33:12,15.08840762,0.000159,53.2176,251.6334,105.007,255.1098,0.0003476,5.248e-05,0.0,0 STARLINK-3452,1 51744U 22016AG  23297.60639947  .00005248  00000-0  34760-3 0  9991,2 51744  53.2176 251.6334 0001590 105.0070 255.1098 15.08840762 92663,6917.878,95.438,540.843,538.643,0.0
51744.0,STARLINK-3452,PAYLOAD,2023-10-25 06:27:04,15.08852221,0.0001577,53.2162,248.6611,106.1802,253.9364,0.00060002,9.277e-05,0.0,0 STARLINK-3452,1 51744U 22016AG  23298.26879691  .00009277  00000-0  60002-3 0  9990,2 51744  53.2162 248.6611 0001577 106.1802 253.9364 15.08852221 93826,6917.843,95.437,540.799,538.617,0.0
51744.0,STARLINK-3452,PAYLOAD,2023-10-26 03:07:04,15.08849385,0.0001512,53.2169,244.7954,99.2792,260.8371,0.00024812,3.664e-05,0.0,0 STARLINK-3452,1 51744U 22016AG  23299.12991660  .00003664  00000-0  24812-3 0  9990,2 51744  53.2169 244.7954 0001512  99.2792 260.8371 15.08849385 93955,6917.852,95.437,540.763,538.671,0.0
51744.0,STARLINK-3452,PAYLOAD,2023-10-26 06:17:50,15.08852326,0.0001528,53.2169,244.2001,102.4207,257.6956,0.00030595,4.586e-05,0.0,0 STARLINK-3452,1 51744U 22016AG  23299.26239510  .00004586  00000-0  30595-3 0  9993,2 51744  53.2169 244.2001 0001528 102.4207 257.6956 15.08852326 92915,6917.843,95.437,540.765,538.651,0.0
51744.0,STARLINK-3452,PAYLOAD,2023-10-27 06:08:37,15.08868571,0.000138,53.216,239.7394,92.4814,267.6336,0.0006827,0.00010602,0.0,0 STARLINK-3452,1 51744U 22016AG  23300.25598649  .00010602  00000-0  68270-3 0  9993,2 51744  53.2160 239.7394 0001380  92.4814 267.6336 15.08868571 94125,6917.793,95.436,540.613,538.703,0.0
51744.0,STARLINK-3452,PAYLOAD,2023-10-27 20:27:06,15.08839146,0.0002293,53.2167,237.0634,96.0047,264.1207,2.0651e-06,-2.55e-06,0.0,0 STARLINK-3452,1 51744U 22016AG  23300.85215495 -.00000255  00000-0  20651-5 0  9991,2 51744  53.2167 237.0634 0002293  96.0047 264.1207 15.08839146 94217,6917.883,95.438,541.334,538.162,0.0
51744.0,STARLINK-3452,PAYLOAD,2023-10-28 12:20:57,15.08837912,0.0001258,53.2163,234.0904,101.4049,258.7084,0.00030706,4.602e-05,0.0,0 STARLINK-3452,1 51744U 22016AG  23301.51455866  .00004602  00000-0  30706-3 0  9992,2 51744  53.2163 234.0904 0001258 101.4049 258.7084 15.08837912 93257,6917.887,95.438,540.622,538.882,0.0
51744.0,STARLINK-3452,PAYLOAD,2023-10-28 18:42:30,15.08838846,0.0001707,53.2163,232.9022,94.317,265.8018,0.00045123,6.9e-05,0.0,0 STARLINK-3452,1 51744U 22016AG  23301.77952065  .00006900  00000-0  45123-3 0  9995,2 51744  53.2163 232.9022 0001707  94.3170 265.8018 15.08838846 93296,6917.884,95.438,540.93,538.568,0.0
51744.0,STARLINK-3452,PAYLOAD,2023-10-29 02:39:26,15.08847879,0.0001432,53.2175,231.4171,111.6933,248.4211,0.00074499,0.00011591,0.0,0 STARLINK-3452,1 51744U 22016AG  23302.11072087  .00011591  00000-0  74499-3 0  9991,2 51744  53.2175 231.4171 0001432 111.6933 248.4211 15.08847879 94405,6917.856,95.437,540.712,538.731,0.0
51744.0,STARLINK-3452,PAYLOAD,2023-10-29 12:11:45,15.08851358,0.0001113,53.2165,229.6319,97.6647,262.4471,0.00074295,0.0001156,0.0,0 STARLINK-3452,1 51744U 22016AG  23302.50815989  .00011560  00000-0  74295-3 0  9990,2 51744  53.2165 229.6319 0001113  97.6647 262.4471 15.08851358 93408,6917.846,95.437,540.481,538.941,0.0
51744.0,STARLINK-3452,PAYLOAD,2023-10-29 18:33:17,15.08842357,0.0002213,53.2183,228.442,97.7985,262.3258,0.00043175,6.59e-05,0.0,0 STARLINK-3452,1 51744U 22016AG  23302.77312468  .00006590  00000-0  43175-3 0  9993,2 51744  53.2183 228.4420 0002213  97.7985 262.3258 15.08842357 94509,6917.873,95.437,541.269,538.207,0.0
51744.0,STARLINK-3452,PAYLOAD,2023-10-30 19:59:28,15.0883312,0.0001309,53.2167,223.6859,90.0157,270.0985,8.4833e-05,1.062e-05,0.0,0 STARLINK-3452,1 51744U 22016AG  23303.83296722  .00001062  00000-0  84833-4 0  9991,2 51744  53.2167 223.6859 0001309  90.0157 270.0985 15.08833120 94664,6917.901,95.438,540.672,538.861,0.0
51744.0,STARLINK-3452,PAYLOAD,2023-10-31 02:21:00,15.08851485,0.0001386,53.2162,222.4949,88.3561,271.759,0.00088794,0.00013876,0.0,0 STARLINK-3452,1 51744U 22016AG  23304.09792595  .00013876  00000-0  88794-3 0  9994,2 51744  53.2162 222.4949 0001386  88.3561 271.7590 15.08851485 94709,6917.845,95.437,540.669,538.751,0.0
51744.0,STARLINK-3452,PAYLOAD,2023-10-31 11:53:19,15.08838142,0.0001596,53.2163,220.7116,79.3383,280.7789,0.00069285,0.00010755,0.0,0 STARLINK-3452,1 51744U 22016AG  23304.49536922  .00010755  00000-0  69285-3 0  9995,2 51744  53.2163 220.7116 0001596  79.3383 280.7789 15.08838142 94763,6917.886,95.438,540.855,538.647,0.0
51744.0,STARLINK-3452,PAYLOAD,2023-11-01 11:44:06,15.08845678,0.0001263,53.2173,216.2476,106.8281,253.285,0.00030835,4.624e-05,0.0,0 STARLINK-3452,1 51744U 22016AG  23305.48896451  .00004624  00000-0  30835-3 0  9998,2 51744  53.2173 216.2476 0001263 106.8281 253.2850 15.08845678 94910,6917.863,95.437,540.602,538.854,0.0
51744.0,STARLINK-3452,PAYLOAD,2023-11-01 22:51:48,15.08847986,0.0001667,53.218,214.1671,93.9572,266.161,0.00029107,4.348e-05,0.0,0 STARLINK-3452,1 51744U 22016AG  23305.95264569  .00004348  00000-0  29107-3 0  9992,2 51744  53.2180 214.1671 0001667  93.9572 266.1610 15.08847986 93920,6917.856,95.437,540.874,538.568,0.0
51744.0,STARLINK-3452,PAYLOAD,2023-11-02 11:34:53,15.08846107,0.0001617,53.2174,211.7895,91.7727,268.3451,0.00025623,3.793e-05,0.0,0 STARLINK-3452,1 51744U 22016AG  23306.48256620  .00003793  00000-0  25623-3 0  9992,2 51744  53.2174 211.7895 0001617  91.7727 268.3451 15.08846107 95065,6917.862,95.437,540.845,538.608,0.0
51744.0,STARLINK-3452,PAYLOAD,2023-11-02 22:42:35,15.08844735,0.0001517,53.2163,209.7072,98.9121,261.2043,0.00016012,2.262e-05,0.0,0 STARLINK-3452,1 51744U 22016AG  23306.94624516  .00002262  00000-0  16012-3 0  9998,2 51744  53.2163 209.7072 0001517  98.9121 261.2043 15.08844735 94077,6917.866,95.437,540.78,538.681,0.0
51744.0,STARLINK-3452,PAYLOAD,2023-11-03 03:28:44,15.08851418,0.0001594,53.2176,208.8154,90.1068,270.0106,0.00021176,3.085e-05,0.0,0 STARLINK-3452,1 51744U 22016AG  23307.14496254  .00003085  00000-0  21176-3 0  9998,2 51744  53.2176 208.8154 0001594  90.1068 270.0106 15.08851418 94109,6917.845,95.437,540.813,538.608,0.0
51744.0,STARLINK-3452,PAYLOAD,2023-11-03 20:57:59,15.08841833,0.0001631,53.2168,205.5417,94.3925,265.7254,0.00010078,1.316e-05,0.0,0 STARLINK-3452,1 51744U 22016AG  23307.87360747  .00001316  00000-0  10078-3 0  9999,2 51744  53.2168 205.5417 0001631  94.3925 265.7254 15.08841833 95270,6917.875,95.437,540.868,538.611,0.0
51744.0,STARLINK-3452,PAYLOAD,2023-11-03 22:33:22,15.08841376,0.00016,53.2168,205.2444,95.0573,265.0602,8.6741e-05,1.093e-05,0.0,0 STARLINK-3452,1 51744U 22016AG  23307.93984668  .00001093  00000-0  86741-4 0  9993,2 51744  53.2168 205.2444 0001600  95.0573 265.0602 15.08841376 94226,6917.876,95.437,540.848,538.634,0.0
51744.0,STARLINK-3452,PAYLOAD,2023-11-04 09:41:05,15.08830851,0.000138,53.2167,203.1669,95.8649,264.2501,-0.00013449,-2.427e-05,0.0,0 STARLINK-3452,1 51744U 22016AG  23308.40353268 -.00002427  00000-0 -13449-3 0  9990,2 51744  53.2167 203.1669 0001380  95.8649 264.2501 15.08830851 95358,6917.908,95.438,540.728,538.819,0.0
51744.0,STARLINK-3452,PAYLOAD,2023-11-04 22:24:10,15.08841105,0.0001481,53.2162,200.7871,94.3013,265.8148,0.00011873,1.602e-05,0.0,0 STARLINK-3452,1 51744U 22016AG  23308.93344984  .00001602  00000-0  11873-3 0  9994,2 51744  53.2162 200.7871 0001481  94.3013 265.8148 15.08841105 94371,6917.877,95.437,540.767,538.717,0.0
51744.0,STARLINK-3452,PAYLOAD,2023-11-04 23:59:33,15.0884471,0.0001502,53.2176,200.4948,94.8736,265.2428,0.00021185,3.086e-05,0.0,0 STARLINK-3452,1 51744U 22016AG  23308.99968885  .00003086  00000-0  21185-3 0  9997,2 51744  53.2176 200.4948 0001502  94.8736 265.2428 15.08844710 95448,6917.866,95.437,540.77,538.692,0.0
51744.0,STARLINK-3452,PAYLOAD,2023-11-05 09:31:51,15.0885974,0.0001444,53.2163,198.7072,93.6294,266.4863,0.00032842,4.945e-05,0.0,0 STARLINK-3452,1 51744U 22016AG  23309.39711958  .00004945  00000-0  32842-3 0  9996,2 51744  53.2163 198.7072 0001444  93.6294 266.4863 15.08859740 95504,6917.82,95.436,540.684,538.686,0.0
